[{"OBJECT_NAME":"STARLINK-35152","OBJECT_ID":"2025-200L","EPOCH":"2026-03-09T18:26:25.621440","MEAN_MOTION":15.05644948,"ECCENTRICITY":6.85e-5,"INCLINATION":97.6016,"RA_OF_ASC_NODE":139.891,"ARG_OF_PERICENTER":109.8786,"MEAN_ANOMALY":250.2515,"EPHEMERIS_TYPE":0,"CLASSIFICATION_TYPE":"U","NORAD_CAT_ID":65530,"ELEMENT_SET_NO":999,"REV_AT_EPOCH":2914,"BSTAR":0.00012588731,"MEAN_MOTION_DOT":1.756e-5,"MEAN_MOTION_DDOT":0},{"OBJECT_NAME":"SL-18 R\/B","OBJECT_ID":"2001-007B","EPOCH":"2026-03-09T23:25:11.323200","MEAN_MOTION":15.07301441,"ECCENTRICITY":0.00085554,"INCLINATION":97.6926,"RA_OF_ASC_NODE":87.6817,"ARG_OF_PERICENTER":353.225,"MEAN_ANOMALY":6.886,"EPHEMERIS_TYPE":0,"CLASSIFICATION_TYPE":"U","NORAD_CAT_ID":26703,"ELEMENT_SET_NO":999,"REV_AT_EPOCH":64619,"BSTAR":0.00021543689,"MEAN_MOTION_DOT":3.19e-5,"MEAN_MOTION_DDOT":0}]
